[
    {
        "Altitude(m)": 604234.5954170827,
        "Argument of Periapsis(deg)": 0.0,
        "Eccentricity": 0.0,
        "Inclination(deg)": 60.0,
        "Latitude(deg)": 14.117156994869445,
        "Longitude(deg)": -33.272690790965605,
        "Mean Anomaly(deg)": -196.36359999999996,
        "RAAN(deg)": 255.0,
        "Satellite Name": "Test1 1132",
        "Satellite Number": 1132,
        "Semi-Major Axis(m)": 6980739.136638005,
        "Time(s)": 0
    },
    {
        "Altitude(m)": 604223.4245307884,
        "Argument of Periapsis(deg)": 0.00010418945913296404,
        "Eccentricity": 0.0,
        "Inclination(deg)": 60.0,
        "Latitude(deg)": 13.58229372539499,
        "Longitude(deg)": -32.98578099524374,
        "Mean Anomaly(deg)": -195.74349385453812,
        "RAAN(deg)": 254.99957995086027,
        "Satellite Name": "Test1 1132",
        "Satellite Number": 1132,
        "Semi-Major Axis(m)": 6980739.136638005,
        "Time(s)": 10
    }
]